INTERCOSMOS 24          
1 20261U 89080A   25172.65806583  .00001067  00000+0  30994-3 0  9995
2 20261  82.6055 274.1391 1190630 178.2588 182.3279 12.59044447633942
SL-14 R/B               
1 20262U 89080C   25172.46594365  .00000273  00000+0  73522-4 0  9990
2 20262  82.5939 340.9271 1231586  61.8470 310.1506 12.50311168627502
DELTA 1 R/B             
1 20323U 89089B   25173.41892591  .00000223  00000+0  64388-4 0  9990
2 20323  97.1040  56.8878 0068079 223.7789 135.8000 14.50402108878536
ARIANE 40 R/B           
1 20443U 90005H   25172.78357670  .00000187  00000+0  73574-4 0  9992
2 20443  98.3456 235.6437 0008843 269.1374  90.8801 14.39643480855269
DELTA 2 R/B(1)          
1 20453U 90008B   25173.01511717  .00025215  00000+0  56741-3 0  9992
2 20453  35.6101  50.8147 0138174  44.9006 316.2805 15.32868890885864
COSMOS 2058             
1 20465U 90010A   25172.75751596  .00002619  00000+0  16418-3 0  9999
2 20465  82.4759 303.8440 0010285 152.3042 207.8737 15.08911033902869
SL-14 R/B               
1 20466U 90010B   25173.38245209  .00000334  00000+0  37720-4 0  9991
2 20466  82.5021 151.8044 0021506  78.7136 281.6494 14.83265182910955
SL-14 R/B               
1 20511U 90018B   25173.21801678  .00000296  00000+0  34458-4 0  9992
2 20511  82.5218 106.5129 0015236 225.6026 134.3942 14.81851143905096
HST                     
1 20580U 90037B   25172.82195484  .00004547  00000+0  16690-3 0  9996
2 20580  28.4691  13.4987 0002458 137.6667 222.4117 15.25368140733393
SL-16 R/B               
1 20625U 90046B   25173.12279112  .00000248  00000+0  15267-3 0  9994
2 20625  70.9983 125.1270 0014942 332.9934  27.0410 14.14964791811789
COSMOS 2084             
1 20663U 90055A   25172.86710749  .00001556  00000+0  12354-3 0  9999
2 20663  62.7882 143.7620 0060256 155.0049 205.3990 15.03707418897073
SL-6 R/B(2)             
1 20666U 90055D   25172.12832263  .00001199  00000+0  10547-3 0  9992
2 20666  62.7835  62.1690 0025865 192.3651 167.6817 15.02048349898883
SL-8 R/B                
1 20775U 90078B   25172.96222256  .00010124  00000+0  33395-3 0  9999
2 20775  82.9072 123.7514 0402037 163.7292 197.7288 14.78470215770634
SL-8 R/B                
1 21088U 91006B   25173.02233348  .00000139  00000+0  12425-3 0  9997
2 21088  82.9424   3.9580 0023511  47.8181 117.2854 13.77459189728454
OKEAN-3                 
1 21397U 91039A   25173.42691019  .00002135  00000+0  15710-3 0  9991
2 21397  82.5168 228.5725 0016003 132.6772 227.5805 15.02801899847004
COSMOS 2151             
1 21422U 91042A   25172.69038628  .00001238  00000+0  10028-3 0  9993
2 21422  82.4971 335.1159 0011629 216.3191 143.7244 14.98864196824086
SL-14 R/B               
1 21423U 91042B   25173.08243131  .00000313  00000+0  36880-4 0  9993
2 21423  82.4935 104.5338 0017708  22.5556 337.6432 14.81549782835527
ERS-1                   
1 21574U 91050A   25172.72968268  .00000199  00000+0  78753-4 0  9991
2 21574  98.7911 179.3681 0030891 255.8489 103.9264 14.39202357778196
ARIANE 40 R/B           
1 21610U 91050F   25173.40079256  .00000211  00000+0  76061-4 0  9993
2 21610  98.2390 229.8370 0004148 129.4631 230.6927 14.42641809781731
INTERCOSMOS 25          
1 21819U 91086A   25173.19072325  .00001683  00000+0  33483-3 0  9993
2 21819  82.6050 107.4197 1489576 318.1990  31.4138 12.11079714465158
SL-8 R/B                
1 21876U 92008B   25172.80089007  .00000032  00000+0  17363-4 0  9990
2 21876  82.9271 101.8044 0035472 141.3865 237.2066 13.75933957673545
SL-8 R/B                
1 21938U 92020B   25172.93642183  .00000144  00000+0  13356-3 0  9998
2 21938  82.9306 347.4152 0027937 307.4159 206.7252 13.75510516665281
USA 81                  
1 21949U 92023A   25172.58865311  .00000129  00000+0  40485-4 0  9991
2 21949  85.0076 282.0388 0002499 108.2038 251.9427 14.32246924 57414
COSMOS 2219             
1 22219U 92076A   25173.48169383  .00000202  00000+0  13092-3 0  9991
2 22219  71.0578 201.9960 0019890 240.2362 119.6783 14.14024417681928
SL-16 R/B               
1 22220U 92076B   25172.75321293  .00000237  00000+0  14234-3 0  9999
2 22220  71.0006  18.0102 0011370 140.2464 272.6048 14.16807973684877
COSMOS 2221             
1 22236U 92080A   25173.42944586  .00001321  00000+0  11862-3 0  9991
2 22236  82.5040 168.0505 0014365 353.7351   6.3688 14.94903109762946
SL-16 R/B               
1 22285U 92093B   25173.03240336 -.00000007  00000+0  20759-4 0  9995
2 22285  71.0194 191.4326 0005229 320.7386  39.3357 14.15395100676598
COSMOS 2228             
1 22286U 92094A   25173.27209752  .00001520  00000+0  13357-3 0  9995
2 22286  82.5184 126.3480 0020323  97.8033 262.5497 14.95741520758186
SL-16 R/B               
1 22566U 93016B   25172.90564928 -.00000030  00000+0  92218-5 0  9990
2 22566  71.0076  42.8870 0010421 348.6283  11.4602 14.15256369665277
COSMOS 2242             
1 22626U 93024A   25172.88269952  .00001415  00000+0  12609-3 0  9993
2 22626  82.5190 155.8534 0018521 101.4074 258.9229 14.95190051741408
SL-16 R/B               
1 22803U 93059B   25173.52114304  .00000093  00000+0  69751-4 0  9992
2 22803  70.9887 199.7468 0019308 249.5120 110.3931 14.17178075642937
ARIANE 40 R/B           
1 22830U 93061H   25172.79329091  .00000132  00000+0  64564-4 0  9995
2 22830  98.5265 241.2883 0010175 342.7308  17.3529 14.32667499656747
COSMOS 2278             
1 23087U 94023A   25172.76109825  .00000198  00000+0  12843-3 0  9991
2 23087  71.0546   0.9759 0007088  60.4542 299.7286 14.14306607607917
SL-16 R/B               
1 23088U 94023B   25172.64570481  .00000083  00000+0  67579-4 0  9999
2 23088  70.9993 259.0813 0004537 309.0031  51.0687 14.14964485609168
SL-16 R/B               
1 23343U 94074B   25172.84145286  .00000320  00000+0  49958-4 0  9997
2 23343  97.7385 208.8262 0006554   3.9487 169.3546 14.79050169648683
SL-16 R/B               
1 23405U 94077B   25172.72906336 -.00000237  00000+0 -96668-4 0  9996
2 23405  70.9807 181.4797 0004096 233.2991 126.7755 14.15519093579307
ARIANE 40+ R/B          
1 23561U 95021B   25172.92951168  .00000195  00000+0  76465-4 0  9998
2 23561  98.4832 242.4291 0006496 192.7313 340.9326 14.39537573581725
SL-16 R/B               
1 23705U 95058B   25173.00577468  .00000287  00000+0  17134-3 0  9994
2 23705  71.0217   7.5381 0012009 166.1287 194.0169 14.15450564531266
SL-16 R/B               
1 24298U 96051B   25172.83300080 -.00000166  00000+0 -63213-4 0  9998
2 24298  70.7679   7.3160 0015203 168.5843 191.5625 14.12413956484816
ORBVIEW 2 (SEASTAR)     
1 24883U 97037A   25172.70914423  .00000210  00000+0  89713-4 0  9992
2 24883  98.8268 325.6214 0003334 104.4071 255.7484 14.35258128471030
SL-16 R/B               
1 25400U 98043G   25172.85664961  .00000026  00000+0  29605-4 0  9990
2 25400  98.7881 119.9794 0010791  54.9704 305.2486 14.25974092401816
SL-16 R/B               
1 25407U 98045B   25173.00312702  .00000246  00000+0  14832-3 0  9999
2 25407  71.0117   9.7710 0005670  53.1201 307.0441 14.16144111390466
ISS (ZARYA)             
1 25544U 98067A   25173.50363358  .00009269  00000+0  16909-3 0  9994
2 25544  51.6384 280.7257 0001987 268.9425 195.4462 15.50184626515988
CZ-4B R/B               
1 25732U 99025C   25172.86319279  .00000036  00000+0  38575-4 0  9996
2 25732  98.6990 217.7624 0037421  16.4959 156.7049 14.18193573351195
OKEAN-O                 
1 25860U 99039A   25173.43643125  .00000457  00000+0  67633-4 0  9991
2 25860  97.9829 230.4014 0002002  94.1136 266.0304 14.79813990395985
SL-16 R/B               
1 25861U 99039B   25172.85864880  .00000397  00000+0  57809-4 0  9997
2 25861  98.0355 226.7474 0015510  28.2535 331.9515 14.81291532398242
DELTA 2 R/B             
1 25876U 99041E   25172.62027751  .00000410  00000+0  10485-3 0  9993
2 25876  51.7653 263.1033 0506335 298.5263  56.5580 14.10749482326169
HELIOS 1B               
1 25977U 99064A   25173.44191745  .00000854  00000+0  10314-3 0  9999
2 25977  98.1948  62.9550 0001554 130.1217 230.0134 14.86504067377885
TERRA                   
1 25994U 99068A   25173.52250722  .00000283  00000+0  67240-4 0  9999
2 25994  97.9977 231.3041 0000902 303.7250 193.2013 14.60715889357210
SL-16 R/B               
1 26070U 00006B   25173.02172257 -.00000242  00000+0 -98594-4 0  9993
2 26070  71.0029 285.9061 0018070 224.0699 135.8985 14.15776772311646
TITAN 4B R/B            
1 26474U 00047B   25173.15187210  .00001984  00000+0  13718-3 0  9991
2 26474  67.9912  51.7002 0045637 327.9103  31.9267 15.07246941353709
ENVISAT                 
1 27386U 02009A   25173.36440755  .00000054  00000+0  31331-4 0  9992
2 27386  98.3341 128.7879 0001353  88.7497  69.6114 14.38922457221808
IDEFIX & ARIANE 42P R/B 
1 27422U 02021B   25172.81223251  .00000153  00000+0  74980-4 0  9993
2 27422  98.5613 110.0018 0010794 232.8554 127.1643 14.30798375206719
AQUA                    
1 27424U 02022A   25173.48590530  .00000603  00000+0  13197-3 0  9999
2 27424  98.3782 131.9031 0001859  63.6603  30.9245 14.61314740230765
CZ-4B R/B               
1 27432U 02024C   25173.57688691  .00000027  00000+0  36739-4 0  9994
2 27432  98.9228 222.6846 0050877  42.3036 126.6214 14.14487879192549
MIDORI II (ADEOS-II)    
1 27597U 02056A   25172.87345278  .00000207  00000+0  99284-4 0  9998
2 27597  98.7383 125.2099 0002070  64.3718 295.7677 14.29055335173041
H-2A R/B                
1 27601U 02056E   25172.88173058  .00000156  00000+0  69475-4 0  9992
2 27601  98.2794 138.8530 0069586 218.2242 161.4215 14.33514836176721
CZ-4B R/B               
1 28059U 03049C   25173.20410107  .00000252  00000+0  69872-4 0  9997
2 28059  98.6593 153.3986 0047494 307.6585  52.0307 14.54692942148706
CZ-2C R/B               
1 28222U 04012C   25173.35671109  .00015221  00000+0  32528-3 0  9996
2 28222  97.7659 213.1304 0023701 173.9362 186.2177 15.44641358163901
